STARLINK-30382          
1 57786U 23134R   26068.38151770  .00000140  00000+0  14913-4 0  9996
2 57786  43.0000 195.8850 0001288 255.3449 104.7259 15.26740595139464
HERMES-4                
1 63833U 25052BP  26068.92081747  .00021364  00000+0  81237-3 0  9996
2 63833  97.4000 323.4610 0002652 154.9526 205.1842 15.26796135 54782
